QIANFAN-73              
1 63159U 25046A   25323.94155678  .00000025  00000+0  19581-4 0  9995
2 63159  88.9749 322.3851 0014703 182.6667 177.4408 13.50973808 44335
QIANFAN-74              
1 63160U 25046B   25323.92501711  .00000046  00000+0  51905-4 0  9997
2 63160  88.9750 322.2754 0002015  86.8407 273.2975 13.50975945 44394
QIANFAN-75              
1 63161U 25046C   25323.91237318  .00000108  00000+0  14919-3 0  9998
2 63161  88.9752 322.5099 0015725 186.4231 173.6721 13.50988527 44264
QIANFAN-76              
1 63162U 25046D   25323.98275861 -.00000127  00000+0 -21612-3 0  9992
2 63162  88.9750 322.4836 0013264 185.8539 174.2460 13.50966383 44286
QIANFAN-77              
1 63163U 25046E   25323.96517242  .00000058  00000+0  32527-4 0  9992
2 63163  88.9751 320.6791 0015923 144.8066 215.4166 13.96078206 45271
QIANFAN-78              
1 63164U 25046F   25323.94976336 -.00000008  00000+0 -30453-4 0  9997
2 63164  88.9749 322.3510 0014577 188.9694 171.1199 13.50974643 44359
QIANFAN-79              
1 63165U 25046G   25323.97844844  .00000027  00000+0  23789-4 0  9992
2 63165  88.9754 322.4548 0014316 186.7446 173.3515 13.50975454 44302
QIANFAN-80              
1 63166U 25046H   25323.99496268  .00000087  00000+0  11553-3 0  9999
2 63166  88.9751 322.1604 0013156 190.6916 169.3958 13.50979369 44469
